{
  "type": "FeatureCollection",
  "features": [
    {
      "type": "Feature",
      "properties": {
        "norad_id": 35789,
        "name": "COSMOS 2251 DEB",
        "group": "cosmos-2251-debris",
        "lat": 40.267991393558155,
        "lon": -62.89531358433281,
        "alt_km": 736.4617364083342,
        "timestamp": "2025-12-13T10:41:26.162819+00:00",
        "meta_object_name": "COSMOS 2251 DEB",
        "meta_object_id": "1993-036ASK",
        "meta_epoch": "2025-12-12T19:26:54.389472",
        "meta_mean_motion": 14.35986036,
        "meta_eccentricity": 0.00473234,
        "meta_inclination": 74.039,
        "meta_ra_of_asc_node": 284.2396,
        "meta_arg_of_pericenter": 23.6443,
        "meta_mean_anomaly": 336.687,
        "meta_ephemeris_type": 0,
        "meta_classification_type": "U",
        "meta_norad_cat_id": 35789,
        "meta_element_set_no": 999,
        "meta_rev_at_epoch": 61228,
        "meta_bstar": 0.0002206071,
        "meta_mean_motion_dot": 6.23e-06,
        "meta_mean_motion_ddot": 0,
        "tle_line1": "1 35789U 93036ASK 25346.81035173  .00000623  00000+0  22061-3 0  9995",
        "tle_line2": "2 35789  74.0390 284.2396 0047323  23.6443 336.6870 14.35986036612289"
      },
      "geometry": {
        "type": "Point",
        "coordinates": [
          -62.89531358433281,
          40.267991393558155
        ]
      }
    },
    {
      "type": "Feature",
      "properties": {
        "norad_id": 35793,
        "name": "COSMOS 2251 DEB",
        "group": "cosmos-2251-debris",
        "lat": -22.334243997568084,
        "lon": -114.45047388785254,
        "alt_km": 638.2316614677502,
        "timestamp": "2025-12-13T10:41:26.162829+00:00",
        "meta_object_name": "COSMOS 2251 DEB",
        "meta_object_id": "1993-036ASP",
        "meta_epoch": "2025-12-11T14:14:11.171904",
        "meta_mean_motion": 14.78636291,
        "meta_eccentricity": 0.00026835,
        "meta_inclination": 74.0409,
        "meta_ra_of_asc_node": 62.436,
        "meta_arg_of_pericenter": 124.0966,
        "meta_mean_anomaly": 303.196,
        "meta_ephemeris_type": 0,
        "meta_classification_type": "U",
        "meta_norad_cat_id": 35793,
        "meta_element_set_no": 999,
        "meta_rev_at_epoch": 65780,
        "meta_bstar": 0.0026518543,
        "meta_mean_motion_dot": 0.00019452,
        "meta_mean_motion_ddot": 0,
        "tle_line1": "1 35793U 93036ASP 25345.59318486  .00019452  00000+0  26519-2 0  9996",
        "tle_line2": "2 35793  74.0409  62.4360 0002683 124.0966 303.1960 14.78636291657806"
      },
      "geometry": {
        "type": "Point",
        "coordinates": [
          -114.45047388785254,
          -22.334243997568084
        ]
      }
    },
    {
      "type": "Feature",
      "properties": {
        "norad_id": 35824,
        "name": "COSMOS 2251 DEB",
        "group": "cosmos-2251-debris",
        "lat": -7.332148720362359,
        "lon": 45.443453348037565,
        "alt_km": 1077.7656103280851,
        "timestamp": "2025-12-13T10:41:26.162839+00:00",
        "meta_object_name": "COSMOS 2251 DEB",
        "meta_object_id": "1993-036ASW",
        "meta_epoch": "2025-12-08T11:24:31.157568",
        "meta_mean_motion": 13.883958,
        "meta_eccentricity": 0.02494458,
        "meta_inclination": 73.8458,
        "meta_ra_of_asc_node": 56.1203,
        "meta_arg_of_pericenter": 143.0234,
        "meta_mean_anomaly": 218.8382,
        "meta_ephemeris_type": 0,
        "meta_classification_type": "U",
        "meta_norad_cat_id": 35824,
        "meta_element_set_no": 999,
        "meta_rev_at_epoch": 84168,
        "meta_bstar": 0.0020429183,
        "meta_mean_motion_dot": 3.116e-05,
        "meta_mean_motion_ddot": 0,
        "tle_line1": "1 35824U 93036ASW 25342.47536062  .00003116  00000+0  20429-2 0  9991",
        "tle_line2": "2 35824  73.8458  56.1203 0249445 143.0234 218.8382 13.88395800841685"
      },
      "geometry": {
        "type": "Point",
        "coordinates": [
          45.443453348037565,
          -7.332148720362359
        ]
      }
    },
    {
      "type": "Feature",
      "properties": {
        "norad_id": 35825,
        "name": "COSMOS 2251 DEB",
        "group": "cosmos-2251-debris",
        "lat": -30.17868901650292,
        "lon": 131.94773176381258,
        "alt_km": 999.4927191023726,
        "timestamp": "2025-12-13T10:41:26.162849+00:00",
        "meta_object_name": "COSMOS 2251 DEB",
        "meta_object_id": "1993-036ASX",
        "meta_epoch": "2025-12-06T17:43:31.257408",
        "meta_mean_motion": 13.70908059,
        "meta_eccentricity": 0.03529553,
        "meta_inclination": 74.1125,
        "meta_ra_of_asc_node": 152.5025,
        "meta_arg_of_pericenter": 249.6557,
        "meta_mean_anomaly": 106.6316,
        "meta_ephemeris_type": 0,
        "meta_classification_type": "U",
        "meta_norad_cat_id": 35825,
        "meta_element_set_no": 999,
        "meta_rev_at_epoch": 82426,
        "meta_bstar": 0.0026115912,
        "meta_mean_motion_dot": 3.599e-05,
        "meta_mean_motion_ddot": 0,
        "tle_line1": "1 35825U 93036ASX 25340.73855622  .00003599  00000+0  26116-2 0  9999",
        "tle_line2": "2 35825  74.1125 152.5025 0352955 249.6557 106.6316 13.70908059824269"
      },
      "geometry": {
        "type": "Point",
        "coordinates": [
          131.94773176381258,
          -30.17868901650292
        ]
      }
    },
    {
      "type": "Feature",
      "properties": {
        "norad_id": 35829,
        "name": "COSMOS 2251 DEB",
        "group": "cosmos-2251-debris",
        "lat": 60.15763183573446,
        "lon": -112.52778937052666,
        "alt_km": 631.8414780826906,
        "timestamp": "2025-12-13T10:41:26.162859+00:00",
        "meta_object_name": "COSMOS 2251 DEB",
        "meta_object_id": "1993-036ATB",
        "meta_epoch": "2025-12-08T14:41:25.732032",
        "meta_mean_motion": 14.76103447,
        "meta_eccentricity": 0.0006283,
        "meta_inclination": 74.0249,
        "meta_ra_of_asc_node": 106.8945,
        "meta_arg_of_pericenter": 174.4564,
        "meta_mean_anomaly": 185.6681,
        "meta_ephemeris_type": 0,
        "meta_classification_type": "U",
        "meta_norad_cat_id": 35829,
        "meta_element_set_no": 999,
        "meta_rev_at_epoch": 87714,
        "meta_bstar": 0.0032694,
        "meta_mean_motion_dot": 0.0002262,
        "meta_mean_motion_ddot": 0,
        "tle_line1": "1 35829U 93036ATB 25342.61210338  .00022620  00000+0  32694-2 0  9995",
        "tle_line2": "2 35829  74.0249 106.8945 0006283 174.4564 185.6681 14.76103447877147"
      },
      "geometry": {
        "type": "Point",
        "coordinates": [
          -112.52778937052666,
          60.15763183573446
        ]
      }
    },
    {
      "type": "Feature",
      "properties": {
        "norad_id": 35830,
        "name": "COSMOS 2251 DEB",
        "group": "cosmos-2251-debris",
        "lat": -67.10263285615268,
        "lon": -138.12002576722787,
        "alt_km": 765.349396249685,
        "timestamp": "2025-12-13T10:41:26.162869+00:00",
        "meta_object_name": "COSMOS 2251 DEB",
        "meta_object_id": "1993-036ATC",
        "meta_epoch": "2025-12-06T12:06:38.215008",
        "meta_mean_motion": 14.23927917,
        "meta_eccentricity": 0.01224789,
        "meta_inclination": 73.8624,
        "meta_ra_of_asc_node": 277.7805,
        "meta_arg_of_pericenter": 247.2482,
        "meta_mean_anomaly": 111.5683,
        "meta_ephemeris_type": 0,
        "meta_classification_type": "U",
        "meta_norad_cat_id": 35830,
        "meta_element_set_no": 999,
        "meta_rev_at_epoch": 61175,
        "meta_bstar": 0.0019622096,
        "meta_mean_motion_dot": 4.837e-05,
        "meta_mean_motion_ddot": 0,
        "tle_line1": "1 35830U 93036ATC 25340.50460897  .00004837  00000+0  19622-2 0  9996",
        "tle_line2": "2 35830  73.8624 277.7805 0122478 247.2482 111.5683 14.23927917611750"
      },
      "geometry": {
        "type": "Point",
        "coordinates": [
          -138.12002576722787,
          -67.10263285615268
        ]
      }
    },
    {
      "type": "Feature",
      "properties": {
        "norad_id": 35834,
        "name": "COSMOS 2251 DEB",
        "group": "cosmos-2251-debris",
        "lat": 72.95952284247088,
        "lon": 53.1757087495995,
        "alt_km": 763.5426358731893,
        "timestamp": "2025-12-13T10:41:26.162879+00:00",
        "meta_object_name": "COSMOS 2251 DEB",
        "meta_object_id": "1993-036ATG",
        "meta_epoch": "2025-12-12T20:47:15.272736",
        "meta_mean_motion": 14.12979936,
        "meta_eccentricity": 0.01092598,
        "meta_inclination": 73.9317,
        "meta_ra_of_asc_node": 304.3154,
        "meta_arg_of_pericenter": 104.5119,
        "meta_mean_anomaly": 285.8109,
        "meta_ephemeris_type": 0,
        "meta_classification_type": "U",
        "meta_norad_cat_id": 35834,
        "meta_element_set_no": 999,
        "meta_rev_at_epoch": 66265,
        "meta_bstar": 0.00043494397,
        "meta_mean_motion_dot": 8.33e-06,
        "meta_mean_motion_ddot": 0,
        "tle_line1": "1 35834U 93036ATG 25346.86614899  .00000833  00000+0  43494-3 0  9995",
        "tle_line2": "2 35834  73.9317 304.3154 0109259 104.5119 285.8109 14.12979936662651"
      },
      "geometry": {
        "type": "Point",
        "coordinates": [
          53.1757087495995,
          72.95952284247088
        ]
      }
    }
  ]
}